{
    "links": {
        "self": "http://www.neowsapp.com/rest/v1/neo/3555083?api_key=iIulBulltgU6a56xZRHN4H3l9WmuAYTsLGpBGhQ2"
    },
    "id": "3555083",
    "neo_reference_id": "3555083",
    "name": "(2011 AL5)",
    "designation": "2011 AL5",
    "nasa_jpl_url": "http://ssd.jpl.nasa.gov/sbdb.cgi?sstr=3555083",
    "absolute_magnitude_h": 22.7,
    "estimated_diameter": {
        "kilometers": {
            "estimated_diameter_min": 0.0766575574,
            "estimated_diameter_max": 0.1714115092
        },
        "meters": {
            "estimated_diameter_min": 76.6575573531,
            "estimated_diameter_max": 171.4115092306
        },
        "miles": {
            "estimated_diameter_min": 0.0476327831,
            "estimated_diameter_max": 0.1065101409
        },
        "feet": {
            "estimated_diameter_min": 251.5011804664,
            "estimated_diameter_max": 562.3737359442
        }
    },
    "is_potentially_hazardous_asteroid": false,
    "close_approach_data": [
        {
            "close_approach_date": "2011-01-15",
            "close_approach_date_full": "2011-Jan-15 14:13",
            "epoch_date_close_approach": 1295100780000,
            "relative_velocity": {
                "kilometers_per_second": "1.3210015585",
                "kilometers_per_hour": "4755.6056105889",
                "miles_per_hour": "2954.9483862018"
            },
            "miss_distance": {
                "astronomical": "0.312513113",
                "lunar": "121.567600957",
                "kilometers": "46751296.05186931",
                "miles": "29049908.304484078"
            },
            "orbiting_body": "Earth"
        }
    ],
    "orbital_data": {
        "orbit_id": "12",
        "orbit_determination_date": "2017-04-06 08:55:02",
        "first_observation_date": "2011-01-08",
        "last_observation_date": "2011-02-12",
        "data_arc_in_days": 35,
        "observations_used": 35,
        "orbit_uncertainty": "7",
        "minimum_orbit_intersection": ".296511",
        "jupiter_tisserand_invariant": "3.437",
        "epoch_osculation": "2459000.5",
        "eccentricity": ".4484550227789873",
        "semi_major_axis": "2.31826700431775",
        "inclination": "1.461379131233255",
        "ascending_node_longitude": "356.1502705080775",
        "orbital_period": "1289.269200410427",
        "perihelion_distance": "1.278628522088659",
        "perihelion_argument": "113.3344895933332",
        "aphelion_distance": "3.357905486546841",
        "perihelion_time": "2459439.369274015409",
        "mean_anomaly": "237.4554308787867",
        "mean_motion": ".2792279532353656",
        "equinox": "J2000",
        "orbit_class": {
            "orbit_class_type": "AMO",
            "orbit_class_description": "Near-Earth asteroid orbits similar to that of 1221 Amor",
            "orbit_class_range": "1.017 AU < q (perihelion) < 1.3 AU"
        }
    },
    "is_sentry_object": false
}